{"type": "FeatureCollection", "features": [{"type": "Feature", "geometry": {"type": "Polygon", "coordinates": [[[-53.9475, -31.9546], [-53.9185, -31.9638], [-53.8921, -31.9954], [-53.8508, -32.0002], [-53.8333, -32.0551], [-53.804, -32.0707], [-53.7479, -32.0779], [-53.7256, -32.0984], [-53.7442, -32.1153], [-53.7171, -32.1555], [-53.7235, -32.1737], [-53.6765, -32.2381], [-53.6778, -32.2586], [-53.6432, -32.3016], [-53.6331, -32.354], [-53.644, -32.3849], [-53.584, -32.4513], [-53.5225, -32.4862], [-53.4709, -32.4807], [-53.4369, -32.5482], [-53.3881, -32.5869], [-53.3697, -32.5699], [-53.2888, -32.6211], [-53.2456, -32.6071], [-53.2371, -32.6298], [-53.1667, -32.6486], [-53.1284, -32.6385], [-53.0837, -32.6567], [-53.063, -32.6181], [-53.0201, -32.6131], [-52.9974, -32.5912], [-52.9833, -32.5042], [-52.968, -32.4905], [-52.8924, -32.4611], [-52.8024, -32.447], [-52.7664, -32.4262], [-52.7236, -32.3816], [-52.7717, -32.3526], [-52.7901, -32.3788], [-52.8211, -32.3341], [-52.7784, -32.2522], [-52.7768, -32.2306], [-52.7383, -32.1924], [-52.7322, -32.1597], [-52.675, -32.164], [-52.6229, -32.1456], [-52.6831, -32.2728], [-52.6884, -32.3195], [-52.639, -32.393], [-52.6023, -32.4606], [-52.5876, -32.5377], [-52.6209, -32.6379], [-52.6885, -32.7578], [-52.7303, -32.8474], [-52.7701, -32.8931], [-52.8322, -32.915], [-52.9078, -32.8877], [-52.963, -32.8422], [-53.0016, -32.7975], [-53.0024, -32.765], [-53.0701, -32.8338], [-53.1473, -32.8188], [-53.1568, -32.8592], [-53.1546, -32.9538], [-53.1744, -33.0035], [-53.2774, -33.1094], [-53.3372, -33.0826], [-53.4027, -33.1583], [-53.4322, -33.1621], [-53.4692, -33.2554], [-53.4676, -33.2797], [-53.4248, -33.4376], [-53.4381, -33.5164], [-53.4656, -33.558], [-53.511, -33.544], [-53.5125, -33.6026], [-53.534, -33.6514], [-53.5228, -33.6893], [-53.4395, -33.6935], [-53.422, -33.7438], [-53.37, -33.7439], [-53.265, -33.6713], [-53.1562, -33.5901], [-53.0862, -33.5307], [-52.7767, -33.2831], [-52.6877, -33.1885], [-52.6239, -33.1042], [-52.4952, -32.8672], [-52.4641, -32.7876], [-52.4229, -32.6288], [-52.3864, -32.5258], [-52.3408, -32.4246], [-52.293, -32.3383], [-52.2339, -32.2602], [-52.1249, -32.1693], [-52.0972, -32.1617], [-52.0991, -32.0826], [-52.1565, -32.0958], [-52.1386, -32.0465], [-52.1941, -32.0579], [-52.196, -32.028], [-52.1131, -32.0092], [-52.1133, -31.9779], [-52.1881, -31.9821], [-52.2282, -32.0361], [-52.2416, -31.9916], [-52.188, -31.963], [-52.1392, -31.9184], [-52.177, -31.9073], [-52.2201, -31.8728], [-52.2236, -31.7889], [-52.2258, -31.7519], [-52.1524, -31.6993], [-52.1041, -31.6847], [-52.0307, -31.6923], [-52.0135, -31.5972], [-52.0181, -31.5479], [-52.0102, -31.5009], [-51.9937, -31.4136], [-51.9601, -31.3528], [-51.9195, -31.3108], [-51.875, -31.309], [-51.8439, -31.3232], [-51.8117, -31.2857], [-51.7571, -31.2861], [-51.7067, -31.2656], [-51.6391, -31.2707], [-51.6413, -31.1877], [-51.6287, -31.153], [-51.602, -31.1317], [-51.5378, -31.115], [-51.4456, -31.0895], [-51.4831, -31.031], [-51.5006, -30.9655], [-51.4978, -30.9176], [-51.4488, -30.8722], [-51.3901, -30.8799], [-51.4043, -30.7829], [-51.4009, -30.7171], [-51.3809, -30.6435], [-51.3346, -30.6338], [-51.3188, -30.6461], [-51.3149, -30.7053], [-51.2931, -30.7077], [-51.3022, -30.6344], [-51.2984, -30.5591], [-51.2654, -30.4798], [-51.2231, -30.4198], [-51.1979, -30.408], [-51.1538, -30.4137], [-51.1221, -30.3969], [-51.1286, -30.3593], [-51.1782, -30.3864], [-51.2074, -30.3408], [-51.2392, -30.3182], [-51.2953, -30.3029], [-51.2987, -30.2408], [-51.3283, -30.2265], [-51.3237, -30.1728], [-51.3012, -30.0542], [-51.2719, -30.039], [-51.2338, -30.0476], [-51.2592, -30.1235], [-51.226, -30.1442], [-51.2278, -30.1771], [-51.1282, -30.2478], [-51.0765, -30.2434], [-51.0629, -30.2596], [-51.0225, -30.2842], [-51.0239, -30.3164], [-51.0474, -30.3815], [-50.9734, -30.4076], [-50.93, -30.4358], [-50.9386, -30.3751], [-50.9148, -30.3264], [-50.844, -30.3208], [-50.797, -30.3384], [-50.782, -30.2848], [-50.7507, -30.2967], [-50.6732, -30.2966], [-50.6589, -30.1999], [-50.6208, -30.1984], [-50.5982, -30.196], [-50.5755, -30.2382], [-50.5426, -30.2523], [-50.5554, -30.3168], [-50.5453, -30.356], [-50.5656, -30.3879], [-50.5744, -30.4815], [-50.6111, -30.4857], [-50.6492, -30.4536], [-50.6537, -30.4175], [-50.5967, -30.391], [-50.6186, -30.3607], [-50.6434, -30.3959], [-50.7056, -30.3476], [-50.7295, -30.3681], [-50.7005, -30.4248], [-50.6864, -30.5008], [-50.6795, -30.6092], [-50.6901, -30.7069], [-50.7208, -30.7797], [-50.7538, -30.8189], [-50.8165, -30.8412], [-50.8823, -30.8916], [-50.9196, -30.9064], [-50.9681, -30.8978], [-50.9514, -30.9595], [-50.9546, -31.0032], [-50.995, -31.0481], [-51.0485, -31.0616], [-51.1036, -31.0994], [-51.1769, -31.0798], [-51.179, -31.1342], [-51.1633, -31.1973], [-51.1575, -31.2847], [-51.1791, -31.365], [-51.2375, -31.4574], [-51.2824, -31.4969], [-51.3611, -31.532], [-51.3993, -31.5204], [-51.4282, -31.492], [-51.4551, -31.5289], [-51.4622, -31.567], [-51.4984, -31.5832], [-51.5471, -31.6506], [-51.6133, -31.7294], [-51.6587, -31.7669], [-51.7346, -31.7887], [-51.8023, -31.7885], [-51.8112, -31.8447], [-51.8604, -31.8702], [-51.9231, -31.8634], [-52.0081, -31.8182], [-52.0666, -31.8176], [-52.0981, -31.8359], [-52.0787, -31.8688], [-52.0152, -31.9224], [-52.0054, -31.9515], [-52.0538, -31.9849], [-52.0391, -32.03], [-52.0497, -32.0772], [-52.0898, -32.1314], [-52.0772, -32.1432], [-51.9208, -31.9877], [-51.8309, -31.9192], [-51.748, -31.87], [-51.6246, -31.8095], [-51.5024, -31.7429], [-51.4272, -31.6956], [-51.2675, -31.5786], [-51.186, -31.5044], [-51.0401, -31.3599], [-50.8791, -31.227], [-50.8421, -31.19], [-50.7672, -31.1101], [-50.6679, -30.9629], [-50.5583, -30.8182], [-50.4649, -30.6807], [-50.374, -30.5629], [-50.3343, -30.5008], [-50.3061, -30.4471], [-50.2519, -30.3049], [-50.2241, -30.2363], [-50.1703, -30.0971], [-50.1192, -29.9762], [-50.0753, -29.8845], [-50.0637, -29.86], [-50.0176, -29.7725], [-49.9337, -29.6251], [-49.9222, -29.6072], [-49.8035, -29.4436], [-49.7129, -29.3256], [-49.7421, -29.2988], [-49.7918, -29.2856], [-49.8157, -29.2859], [-49.8571, -29.2331], [-49.9016, -29.2153], [-49.9576, -29.1995], [-50.0099, -29.2254], [-50.1155, -29.2623], [-50.034, -29.3496], [-50.041, -29.3551], [-50.1125, -29.304], [-50.1446, -29.2702], [-50.1456, -29.1978], [-50.1078, -29.211], [-50.018, -29.1628], [-49.9576, -29.0682], [-49.966, -29.0217], [-49.9337, -28.9658], [-49.9557, -28.9489], [-49.9509, -28.8935], [-49.9621, -28.8535], [-49.9613, -28.7722], [-49.8694, -28.701], [-49.8402, -28.7131], [-49.8392, -28.6665], [-49.7566, -28.616], [-49.7041, -28.63], [-49.7031, -28.6289], [-49.708, -28.5822], [-49.7467, -28.5354], [-49.7483, -28.494], [-49.7909, -28.4964], [-49.8163, -28.469], [-49.8393, -28.4965], [-49.9004, -28.4647], [-49.9708, -28.4402], [-50.0272, -28.4743], [-50.0687, -28.4792], [-50.0972, -28.4844], [-50.1473, -28.4495], [-50.2424, -28.432], [-50.2729, -28.4571], [-50.3013, -28.4393], [-50.3404, -28.441], [-50.3684, -28.4212], [-50.4248, -28.4333], [-50.4704, -28.4149], [-50.5316, -28.4078], [-50.5442, -28.4275], [-50.5932, -28.3816], [-50.6652, -28.3379], [-50.6649, -28.3128], [-50.6956, -28.2699], [-50.7491, -28.2485], [-50.7612, -28.195], [-50.7941, -28.1386], [-50.859, -28.1397], [-50.8759, -28.0951], [-50.8994, -28.0897], [-50.8753, -28.0413], [-50.9232, -28.012], [-50.924, -27.9717], [-50.9784, -27.9482], [-51.0015, -27.9632], [-51.0199, -27.9225], [-51.0567, -27.8868], [-51.0534, -27.8689], [-51.1346, -27.8037], [-51.1878, -27.7777], [-51.272, -27.7517], [-51.2733, -27.7355], [-51.3088, -27.7195], [-51.3151, -27.6751], [-51.3601, -27.6788], [-51.3779, -27.66], [-51.4192, -27.6546], [-51.4573, -27.6075], [-51.4833, -27.5632], [-51.5476, -27.5591], [-51.5784, -27.577], [-51.6083, -27.5414], [-51.6326, -27.4886], [-51.6474, -27.5163], [-51.7012, -27.4798], [-51.7173, -27.5114], [-51.7516, -27.4881], [-51.788, -27.5148], [-51.8371, -27.5222], [-51.8582, -27.4751], [-51.9025, -27.4914], [-51.9358, -27.4287], [-51.9688, -27.4107], [-51.9834, -27.3751], [-52.049, -27.3463], [-52.1071, -27.3434], [-52.1263, -27.3025], [-52.2248, -27.3306], [-52.268, -27.2832], [-52.2613, -27.2569], [-52.3061, -27.2657], [-52.2998, -27.3191], [-52.3521, -27.2889], [-52.3978, -27.2925], [-52.4192, -27.2824], [-52.4421, -27.2505], [-52.4325, -27.2178], [-52.4798, -27.2355], [-52.4793, -27.2659], [-52.5363, -27.2601], [-52.5446, -27.2406], [-52.6179, -27.2657], [-52.6764, -27.2457], [-52.6915, -27.2844], [-52.7138, -27.2377], [-52.763, -27.2492], [-52.7605, -27.2132], [-52.7855, -27.206], [-52.801, -27.2034], [-52.8457, -27.2074], [-52.8513, -27.1703], [-52.9293, -27.2041], [-52.9567, -27.1633], [-52.9712, -27.2178], [-53, -27.2067], [-52.9851, -27.1705], [-52.9925, -27.14], [-53.0262, -27.1586], [-53.0414, -27.1249], [-53.0178, -27.0931], [-53.0482, -27.0837], [-53.0767, -27.1078], [-53.0712, -27.157], [-53.1396, -27.1757], [-53.1695, -27.1442], [-53.1877, -27.1923], [-53.2321, -27.1711], [-53.3225, -27.2099], [-53.2962, -27.1324], [-53.3554, -27.1113], [-53.381, -27.0941], [-53.4062, -27.1365], [-53.4554, -27.1569], [-53.4763, -27.1389], [-53.5081, -27.1515], [-53.4882, -27.1938], [-53.5182, -27.2022], [-53.5478, -27.1764], [-53.5997, -27.1894], [-53.6307, -27.2134], [-53.6513, -27.1766], [-53.6862, -27.1636], [-53.7177, -27.1825], [-53.7516, -27.1881], [-53.776, -27.1475], [-53.8197, -27.1757], [-53.8371, -27.1684], [-53.8643, -27.1262], [-53.8977, -27.1703], [-53.9466, -27.1513], [-53.9602, -27.1953], [-54.008, -27.1984], [-54.0278, -27.2549], [-54.055, -27.264], [-54.0824, -27.2989], [-54.1115, -27.3025], [-54.1549, -27.2969], [-54.1933, -27.3085], [-54.2174, -27.385], [-54.2675, -27.4043], [-54.2839, -27.4478], [-54.3415, -27.4044], [-54.3351, -27.4513], [-54.3572, -27.4649], [-54.3988, -27.4116], [-54.4721, -27.4345], [-54.444, -27.46], [-54.4746, -27.4812], [-54.5006, -27.4804], [-54.5249, -27.5062], [-54.5734, -27.4536], [-54.6158, -27.5322], [-54.632, -27.5457], [-54.6801, -27.5266], [-54.6717, -27.5664], [-54.7233, -27.5635], [-54.7846, -27.5787], [-54.7952, -27.535], [-54.8171, -27.5356], [-54.8397, -27.6052], [-54.8608, -27.6294], [-54.9032, -27.6364], [-54.9029, -27.6989], [-54.9066, -27.7298], [-54.9494, -27.7793], [-54.9993, -27.7905], [-55.0243, -27.7942], [-55.0579, -27.7681], [-55.0827, -27.7969], [-55.0247, -27.8353], [-55.0517, -27.8524], [-55.0911, -27.8432], [-55.1263, -27.8598], [-55.1393, -27.8951], [-55.1716, -27.8613], [-55.2027, -27.8579], [-55.2501, -27.9142], [-55.2778, -27.9329], [-55.3273, -27.9267], [-55.3398, -27.966], [-55.3872, -27.9862], [-55.3755, -28.034], [-55.414, -28.0546], [-55.4384, -28.0863], [-55.4879, -28.0765], [-55.5306, -28.1155], [-55.5642, -28.1635], [-55.6107, -28.1175], [-55.6342, -28.1778], [-55.6926, -28.2188], [-55.7712, -28.2415], [-55.7732, -28.2742], [-55.7431, -28.2815], [-55.6802, -28.3222], [-55.6692, -28.3408], [-55.6922, -28.4164], [-55.7197, -28.4187], [-55.7344, -28.3812], [-55.7566, -28.3694], [-55.8711, -28.3573], [-55.9004, -28.3983], [-55.884, -28.4792], [-55.9882, -28.4981], [-56.0232, -28.5228], [-56.0024, -28.5783], [-56.0177, -28.6129], [-56.0473, -28.6241], [-56.1192, -28.6812], [-56.1942, -28.7752], [-56.2609, -28.779], [-56.2997, -28.8081], [-56.3001, -28.8956], [-56.3233, -28.9247], [-56.379, -28.948], [-56.4162, -29.0007], [-56.3991, -29.0174], [-56.4304, -29.0795], [-56.503, -29.0887], [-56.5501, -29.1167], [-56.5888, -29.1198], [-56.6169, -29.1711], [-56.6458, -29.2003], [-56.6492, -29.255], [-56.6645, -29.295], [-56.713, -29.3674], [-56.7587, -29.3709], [-56.78, -29.42], [-56.8221, -29.49], [-56.902, -29.5338], [-56.9678, -29.6018], [-56.9711, -29.6434], [-57.0009, -29.6519], [-57.0211, -29.6833], [-57.1319, -29.7702], [-57.172, -29.7807], [-57.2354, -29.7808], [-57.2978, -29.8347], [-57.3297, -29.8876], [-57.3281, -29.9719], [-57.352, -30.0081], [-57.3963, -30.0228], [-57.4538, -30.0816], [-57.4646, -30.1103], [-57.5256, -30.1514], [-57.5941, -30.179], [-57.5578, -30.2134], [-57.568, -30.2522], [-57.5508, -30.2726], [-57.5003, -30.2889], [-57.4901, -30.269], [-57.4293, -30.2746], [-57.4186, -30.3026], [-57.352, -30.2845], [-57.3114, -30.2581], [-57.2846, -30.2937], [-57.2042, -30.2851], [-57.1674, -30.2476], [-57.1672, -30.1963], [-57.1152, -30.1137], [-57.0783, -30.0915], [-57.0448, -30.1057], [-57.0239, -30.0875], [-56.9556, -30.1011], [-56.8504, -30.0889], [-56.7803, -30.1266], [-56.784, -30.1512], [-56.7298, -30.1717], [-56.6963, -30.2051], [-56.6581, -30.2013], [-56.5958, -30.2954], [-56.537, -30.3341], [-56.4914, -30.3981], [-56.4622, -30.3845], [-56.44, -30.4325], [-56.3982, -30.4484], [-56.3859, -30.4956], [-56.2899, -30.5323], [-56.2767, -30.5607], [-56.238, -30.5734], [-56.2141, -30.6085], [-56.1877, -30.6047], [-56.1646, -30.6432], [-56.1501, -30.7055], [-56.1073, -30.732], [-56.0957, -30.754], [-56.0236, -30.7857], [-55.9897, -30.8599], [-56.0111, -30.912], [-56.0188, -31.0436], [-56.0053, -31.0819], [-55.9793, -31.0732], [-55.8708, -31.0716], [-55.8072, -31.0165], [-55.7809, -31.0171], [-55.704, -30.9552], [-55.6662, -30.954], [-55.6421, -30.9116], [-55.6631, -30.8719], [-55.6379, -30.8462], [-55.5793, -30.8401], [-55.5459, -30.8905], [-55.5102, -30.9018], [-55.4784, -30.9538], [-55.4573, -30.9514], [-55.4246, -30.9856], [-55.437, -31.0047], [-55.3713, -31.0234], [-55.3586, -31.0626], [-55.3275, -31.0882], [-55.3385, -31.1337], [-55.2897, -31.1453], [-55.2501, -31.206], [-55.2468, -31.2522], [-55.1742, -31.2682], [-55.1523, -31.2932], [-55.0745, -31.3321], [-55.0358, -31.2839], [-55.0024, -31.2692], [-54.9828, -31.3114], [-54.9578, -31.3244], [-54.9325, -31.3851], [-54.8996, -31.3763], [-54.8365, -31.4419], [-54.7388, -31.4256], [-54.7013, -31.4357], [-54.6703, -31.4541], [-54.5869, -31.4565], [-54.5774, -31.481], [-54.5156, -31.5102], [-54.4729, -31.5704], [-54.4546, -31.6528], [-54.0813, -31.9296], [-54.039, -31.8974], [-53.9633, -31.922], [-53.9475, -31.9546]]]}, "properties": {"codarea": "43"}}]}